NORAD_CAT_ID,OBJECT_NAME,OBJECT_TYPE,EPOCH,MEAN_MOTION,ECCENTRICITY,INCLINATION,RA_OF_ASC_NODE,ARG_OF_PERICENTER,MEAN_ANOMALY,BSTAR,MEAN_MOTION_DOT,MEAN_MOTION_DDOT,TLE_LINE0,TLE_LINE1,TLE_LINE2,SEMIMAJOR_AXIS,PERIOD,APOGEE,PERIGEE,DECAYED
56488.0,STARLINK-6204,PAYLOAD,2024-05-26 14:43:50,14.99154344,0.000345,69.9986,308.7374,271.2636,88.8128,-0.00015604,-1.995e-05,0.0,0 STARLINK-6204,1 56488U 23064AS  24147.61378033 -.00001995  00000-0 -15604-3 0  9990,2 56488  69.9986 308.7374 0003450 271.2636  88.8128 14.99154344 58553,6947.645,96.054,571.907,567.113,0.0
56488.0,STARLINK-6204,PAYLOAD,2024-05-26 22:00:00,14.99135834,0.0003621,70.0004,307.9759,267.8868,286.4264,0.00048963,5.877e-05,0.0,0 STARLINK-6204,1 56488U 23064AS  24147.91667824  .00005877  00000-0  48963-3 0  9997,2 56488  70.0004 307.9759 0003621 267.8868 286.4264 14.99135834  6095,6947.702,96.055,572.083,567.051,0.0
56488.0,STARLINK-6204,PAYLOAD,2024-05-27 13:09:00,14.99134886,0.0003383,69.9988,306.3798,269.9873,90.0899,7.1095e-05,7.73e-06,0.0,0 STARLINK-6204,1 56488U 23064AS  24148.54792196  .00000773  00000-0  71095-4 0  9991,2 56488  69.9988 306.3798 0003383 269.9873  90.0899 14.99134886 59056,6947.705,96.055,571.92,567.22,0.0
56488.0,STARLINK-6204,PAYLOAD,2024-05-27 14:45:05,14.99133827,0.000319,69.9988,306.2098,270.3632,89.7162,1.5861e-05,9.9e-07,0.0,0 STARLINK-6204,1 56488U 23064AS  24148.61464835  .00000099  00000-0  15861-4 0  9995,2 56488  69.9988 306.2098 0003190 270.3632  89.7162 14.99133827 58706,6947.708,96.055,571.79,567.357,0.0
56488.0,STARLINK-6204,PAYLOAD,2024-05-27 19:33:20,14.99136619,0.0003061,69.9993,305.706,260.4844,99.597,3.3325e-05,3.12e-06,0.0,0 STARLINK-6204,1 56488U 23064AS  24148.81481775  .00000312  00000-0  33325-4 0  9992,2 56488  69.9993 305.7060 0003061 260.4844  99.5970 14.99136619 58738,6947.7,96.055,571.691,567.438,0.0
56488.0,STARLINK-6204,PAYLOAD,2024-05-28 13:10:14,14.99144771,0.0003016,69.9994,303.8527,261.5609,98.5208,-1.6487e-05,-2.95e-06,0.0,0 STARLINK-6204,1 56488U 23064AS  24149.54877679 -.00000295  00000-0 -16487-4 0  9997,2 56488  69.9994 303.8527 0003016 261.5609  98.5208 14.99144771 59201,6947.674,96.055,571.635,567.444,0.0
56488.0,STARLINK-6204,PAYLOAD,2024-05-28 14:46:19,14.99144549,0.0003024,69.9994,303.6842,261.4544,98.6273,-1.8656e-05,-3.21e-06,0.0,0 STARLINK-6204,1 56488U 23064AS  24149.61550071 -.00000321  00000-0 -18656-4 0  9999,2 56488  69.9994 303.6842 0003024 261.4544  98.6273 14.99144549 58851,6947.675,96.055,571.641,567.439,0.0
56488.0,STARLINK-6204,PAYLOAD,2024-05-28 19:34:33,14.99145433,0.0003013,69.9995,303.1791,261.832,98.2497,-6.7889e-06,-1.76e-06,0.0,0 STARLINK-6204,1 56488U 23064AS  24149.81567104 -.00000176  00000-0 -67889-5 0  9997,2 56488  69.9995 303.1791 0003013 261.8320  98.2497 14.99145433 58884,6947.672,96.055,571.631,567.444,0.0
56488.0,STARLINK-6204,PAYLOAD,2024-05-29 13:11:28,14.99136052,0.000303,69.9995,301.3264,264.8279,95.2535,-1.4397e-05,-2.69e-06,0.0,0 STARLINK-6204,1 56488U 23064AS  24150.54964007 -.00000269  00000-0 -14397-4 0  9990,2 56488  69.9995 301.3264 0003030 264.8279  95.2535 14.99136052 59354,6947.701,96.055,571.672,567.461,0.0
56488.0,STARLINK-6204,PAYLOAD,2024-05-29 19:35:48,14.99136341,0.0003034,69.9996,300.6526,264.8655,95.2158,-1.1147e-05,-2.3e-06,0.0,0 STARLINK-6204,1 56488U 23064AS  24150.81653611 -.00000230  00000-0 -11147-4 0  9994,2 56488  69.9996 300.6526 0003034 264.8655  95.2158 14.99136341 59037,6947.7,96.055,571.673,567.458,0.0
56488.0,STARLINK-6204,PAYLOAD,2024-05-30 13:12:42,14.99142414,0.0003068,69.9997,298.7997,265.8819,94.199,-1.0376e-05,-2.2e-06,0.0,0 STARLINK-6204,1 56488U 23064AS  24151.55049565 -.00000220  00000-0 -10376-4 0  9995,2 56488  69.9997 298.7997 0003068 265.8819  94.1990 14.99142414 59509,6947.682,96.055,571.678,567.415,0.0
56488.0,STARLINK-6204,PAYLOAD,2024-05-30 14:48:47,14.99142174,0.0003076,69.9996,298.6312,265.9799,94.1009,-1.2776e-05,-2.49e-06,0.0,0 STARLINK-6204,1 56488U 23064AS  24151.61721972 -.00000249  00000-0 -12776-4 0  9998,2 56488  69.9996 298.6312 0003076 265.9799  94.1009 14.99142174 59150,6947.682,96.055,571.685,567.41,0.0
56488.0,STARLINK-6204,PAYLOAD,2024-05-30 18:00:57,14.99142662,0.0003069,69.9995,298.294,265.7902,94.2906,-4.8667e-06,-1.53e-06,0.0,0 STARLINK-6204,1 56488U 23064AS  24151.75066685 -.00000153  00000-0 -48667-5 0  9999,2 56488  69.9995 298.2940 0003069 265.7902  94.2906 14.99142662 59179,6947.681,96.055,571.678,567.414,0.0
56488.0,STARLINK-6204,PAYLOAD,2024-05-31 13:13:57,14.99138644,0.0003101,69.9995,296.2722,267.0137,93.0667,3.6242e-05,3.48e-06,0.0,0 STARLINK-6204,1 56488U 23064AS  24152.55135498  .00000348  00000-0  36242-4 0  9996,2 56488  69.9995 296.2722 0003101 267.0137  93.0667 14.99138644 59656,6947.693,96.055,571.713,567.404,0.0
56488.0,STARLINK-6204,PAYLOAD,2024-05-31 19:38:16,14.99143231,0.0003168,69.9993,295.5975,270.3745,89.7051,6.9956e-05,7.59e-06,0.0,0 STARLINK-6204,1 56488U 23064AS  24152.81824675  .00000759  00000-0  69956-4 0  9991,2 56488  69.9993 295.5975 0003168 270.3745  89.7051 14.99143231 59333,6947.679,96.055,571.745,567.343,0.0
56488.0,STARLINK-6204,PAYLOAD,2024-06-01 13:15:11,14.99136809,0.0003051,69.9996,293.7444,270.8793,89.2017,-4.4766e-05,-6.39e-06,0.0,0 STARLINK-6204,1 56488U 23064AS  24153.55221767 -.00000639  00000-0 -44766-4 0  9997,2 56488  69.9996 293.7444 0003051 270.8793  89.2017 14.99136809 59808,6947.699,96.055,571.684,567.444,0.0
56488.0,STARLINK-6204,PAYLOAD,2024-06-01 14:51:16,14.99136688,0.0003052,69.9996,293.576,270.9009,89.1801,-4.5318e-05,-6.46e-06,0.0,0 STARLINK-6204,1 56488U 23064AS  24153.61894181 -.00000646  00000-0 -45318-4 0  9992,2 56488  69.9996 293.5760 0003052 270.9009  89.1801 14.99136688 59455,6947.699,96.055,571.685,567.444,0.0
56488.0,STARLINK-6204,PAYLOAD,2024-06-01 19:39:31,14.99124474,0.0002929,69.9997,293.0709,270.2282,89.8542,0.0001383,1.591e-05,0.0,0 STARLINK-6204,1 56488U 23064AS  24153.81911778  .00001591  00000-0  13830-3 0  9997,2 56488  69.9997 293.0709 0002929 270.2282  89.8542 14.99124474 59844,6947.737,96.056,571.637,567.567,0.0
56488.0,STARLINK-6204,PAYLOAD,2024-06-02 11:40:21,14.99130711,0.0003179,69.9996,291.3866,272.7883,87.2912,-0.00011094,-1.445e-05,0.0,0 STARLINK-6204,1 56488U 23064AS  24154.48636151 -.00001445  00000-0 -11094-3 0  9990,2 56488  69.9996 291.3866 0003179 272.7883  87.2912 14.99130711 59585,6947.718,96.056,571.792,567.374,0.0
56488.0,STARLINK-6204,PAYLOAD,2024-06-03 02:05:06,14.99127024,0.0003285,69.9994,289.8703,273.1968,86.8815,-0.00016103,-2.055e-05,0.0,0 STARLINK-6204,1 56488U 23064AS  24155.08688505 -.00002055  00000-0 -16103-3 0  9991,2 56488  69.9994 289.8703 0003285 273.1968  86.8815 14.99127024 60034,6947.729,96.056,571.877,567.312,0.0
56488.0,STARLINK-6204,PAYLOAD,2024-06-03 14:53:45,14.9913428,0.000343,69.9987,288.5228,271.0111,89.0655,6.4563e-05,6.93e-06,0.0,0 STARLINK-6204,1 56488U 23064AS  24155.62066881  .00000693  00000-0  64563-4 0  9996,2 56488  69.9987 288.5228 0003430 271.0111  89.0655 14.99134280 59759,6947.707,96.055,571.955,567.189,0.0
56488.0,STARLINK-6204,PAYLOAD,2024-06-04 02:06:19,14.99145442,0.0003454,69.9986,287.3428,274.534,85.5424,9.803e-05,1.101e-05,0.0,0 STARLINK-6204,1 56488U 23064AS  24156.08772874  .00001101  00000-0  98030-4 0  9994,2 56488  69.9986 287.3428 0003454 274.5340  85.5424 14.99145442 60181,6947.672,96.055,571.937,567.138,0.0
56488.0,STARLINK-6204,PAYLOAD,2024-06-04 11:42:49,14.99140351,0.0003374,69.9986,286.3323,273.6545,86.4228,0.00024314,2.87e-05,0.0,0 STARLINK-6204,1 56488U 23064AS  24156.48807120  .00002870  00000-0  24314-3 0  9998,2 56488  69.9986 286.3323 0003374 273.6545  86.4228 14.99140351 59883,6947.688,96.055,571.897,567.209,0.0
56488.0,STARLINK-6204,PAYLOAD,2024-06-05 02:07:33,14.99153532,0.0003248,69.9989,284.8166,274.0634,86.0154,0.00015649,1.814e-05,0.0,0 STARLINK-6204,1 56488U 23064AS  24157.08857930  .00001814  00000-0  15649-3 0  9997,2 56488  69.9989 284.8166 0003248 274.0634  86.0154 14.99153532 60339,6947.647,96.054,571.769,567.256,0.0
56488.0,STARLINK-6204,PAYLOAD,2024-06-05 11:44:04,14.99130478,0.0003123,69.9993,283.8062,272.6337,87.4465,-9.6925e-05,-1.274e-05,0.0,0 STARLINK-6204,1 56488U 23064AS  24157.48894370 -.00001274  00000-0 -96925-4 0  9999,2 56488  69.9993 283.8062 0003123 272.6337  87.4465 14.99130478 60394,6947.719,96.056,571.753,567.414,0.0
56488.0,STARLINK-6204,PAYLOAD,2024-06-05 14:56:14,14.99137838,0.0003054,69.9982,283.4674,270.7781,89.3029,-0.00010876,-1.419e-05,0.0,0 STARLINK-6204,1 56488U 23064AS  24157.62238757 -.00001419  00000-0 -10876-3 0  9997,2 56488  69.9982 283.4674 0003054 270.7781  89.3029 14.99137838 60059,6947.696,96.055,571.683,567.439,0.0
56488.0,STARLINK-6204,PAYLOAD,2024-06-05 18:08:24,14.99136639,0.0003024,69.9981,283.13,270.0717,90.0096,-0.00012345,-1.598e-05,0.0,0 STARLINK-6204,1 56488U 23064AS  24157.75583655 -.00001598  00000-0 -12345-3 0  9992,2 56488  69.9981 283.1300 0003024 270.0717  90.0096 14.99136639 60073,6947.7,96.055,571.666,567.464,0.0
56488.0,STARLINK-6204,PAYLOAD,2024-06-06 11:45:18,14.99142369,0.000306,69.9987,281.2776,270.6715,89.4094,-9.8447e-05,-1.293e-05,0.0,0 STARLINK-6204,1 56488U 23064AS  24158.48979482 -.00001293  00000-0 -98447-4 0  9990,2 56488  69.9987 281.2776 0003060 270.6715  89.4094 14.99142369 60548,6947.682,96.055,571.673,567.421,0.0
56488.0,STARLINK-6204,PAYLOAD,2024-06-06 14:57:26,14.99203124,0.0002093,69.9987,280.9412,244.9701,115.1241,-0.00098755,-0.00012125,0.0,0 STARLINK-6204,1 56488U 23064AS  24158.62322806 -.00012125  00000-0 -98755-3 0  9995,2 56488  69.9987 280.9412 0002093 244.9701 115.1241 14.99203124 60206,6947.494,96.051,570.813,567.905,0.0
56488.0,STARLINK-6204,PAYLOAD,2024-06-07 08:34:22,14.99134504,0.0002897,69.9986,279.0884,270.1446,89.9381,9.7833e-05,1.098e-05,0.0,0 STARLINK-6204,1 56488U 23064AS  24159.35720385  .00001098  00000-0  97833-4 0  9992,2 56488  69.9986 279.0884 0002897 270.1446  89.9381 14.99134504 60675,6947.706,96.055,571.584,567.558,0.0
